C/2021 K2 (MASTER),h,09/09.1168/2021,100.8396,282.2478,343.3188,1.000624,5.466625,2000,8.0,4.0
# From MPEC 2021-R75
C/2021 K3 (Catalina),h,02/02.3697/2022,134.8053,114.4392,181.9615,1.007134,5.231018,2000,10.0,4.0
# From MPEC 2021-S45
P/2021 L2 (Leonard),e,21.0683,266.6702,51.5349,4.053481,0.1207708,0.52175766,7.9074,09/28.0/2021,2000,g 17.0,4.0
# From MPEC 2021-S45
C/2021 L3 (Borisov),h,02/13.3533/2022,78.5799,344.9692,91.5768,1.000891,8.458067,2000,6.0,4.0
# From MPEC 2021-R75
P/2021 L4 (PANSTARRS),e,16.9617,243.2251,234.6235,3.164978,0.1750443,0.11861585,132.1426,09/28.0/2021,2000,g 13.5,4.0
# From MPEC 2021-P47
P/2021 N1 (ZTF),e,11.5060,301.1634,21.1909,2.977006,0.1918821,0.67678427,21.7685,09/28.0/2021,2000,g 19.0,4.0
# From MPEC 2021-S45
P/2021 N2 (Fuls),e,13.0613,221.7454,177.2259,6.938993,0.0539212,0.45275890,357.5426,09/28.0/2021,2000,g  9.5,4.0
# From MPEC 2021-S45
C/2021 N3 (PANSTARRS),e,26.7452,337.4980,304.4781,161.8712,0.0004786,0.96477190,0.1943,09/28.0/2021,2000,g  8.5,4.0
# From MPEC 2021-R75
C/2021 O1 (Nishimura),h,08/13.9281/2021,27.5726,41.6080,74.4506,1.000175,0.786986,2000,10.5,4.0
# From MPEC 2021-S45
C/2021 O3 (PANSTARRS),h,04/21.0128/2022,56.7696,189.0287,299.9820,1.000203,0.287242,2000,10.5,4.0
# From MPEC 2021-S45
C/2021 P1 (PANSTARRS),e,51.6206,359.6714,40.3494,33989,0.0000002,0.99987127,0.0000,06/01.6333/2022,2000,g 11.0,4.0
# From MPEC 2021-S45
C/2021 P2 (PANSTARRS),e,150.0189,31.9935,76.4949,2472,0.0000080,0.99794831,0.0000,01/21.8508/2023,2000,g  9.0,4.0
# From MPEC 2021-S45
P/2021 P3 (PANSTARRS),e,27.1492,358.2372,334.1839,4.420641,0.1060416,0.34044818,12.7423,09/28.0/2021,2000,g 14.0,4.0
# From MPEC 2021-S45
C/2021 P4 (ATLAS),e,56.3112,348.0952,175.8315,309.7968,0.0001808,0.99651320,0.0000,07/30.3626/2022,2000,g  9.5,4.0
# From MPEC 2021-S45
C/2021 Q3 (ATLAS),e,77.7764,307.9258,114.0506,75.34506,0.0015070,0.93089321,359.8195,09/28.0/2021,2000,g  8.0,4.0
# From MPEC 2021-S45
C/2021 Q4 (Fuls),h,06/08.8803/2023,71.4744,183.3304,146.8913,1.003553,7.567427,2000,6.0,4.0
# From MPEC 2021-S45
P/2021 Q5 (ATLAS),e,10.7349,239.7811,180.8988,3.288402,0.1652824,0.62454371,4.7208,09/28.0/2021,2000,g 15.0,4.0
# From MPEC 2021-S45
C/2021 Q6 (PANSTARRS),e,161.8468,133.5431,140.7869,7291,0.0000016,0.99880446,0.0000,03/21.1334/2024,2000,g  6.0,4.0
# From MPEC 2021-S45
P/2021 R1 (PANSTARRS),e,5.5212,143.4081,220.2684,8.441725,0.0401844,0.42124771,356.7797,09/28.0/2021,2000,g 11.0,4.0
# From MPEC 2021-S45
C/2021 R2 (PANSTARRS),e,134.4634,16.2790,32.0467,2939,0.0000062,0.99751118,0.0000,12/21.4995/2021,2000,g  7.5,4.0
# From MPEC 2021-S45
P/2021 R3 (PANSTARRS),e,19.9302,304.2484,3.0000,3.779891,0.1341174,0.33190345,16.6182,09/28.0/2021,2000,g 16.0,4.0
# From MPEC 2021-S45
P/2021 R4 (Wierzchos),e,21.0731,321.3250,56.3954,5.648467,0.0734190,0.58775212,358.8661,09/28.0/2021,2000,g 16.0,4.0
# From MPEC 2021-S45
P/2021 R5 (Rankin),e,7.8498,219.9799,167.0196,4.801287,0.0936845,0.30749701,350.2169,09/28.0/2021,2000,g 12.0,4.0
# From  98, 1083
1P/Halley,e,162.2441,58.8059,111.7388,17.87287,0.0130441,0.96620784,169.7797,09/28.0/2021,2000,g  4.0,6.0
# From MPEC 2021-S45
2P/Encke,e,11.8060,334.5141,186.6269,2.217895,0.2983956,0.84921763,136.7090,09/28.0/2021,2000,g 11.5,6.0
# From MPEC 2021-S45
4P/Faye,e,8.0083,192.9314,206.9970,3.823481,0.1318305,0.57660105,2.5270,09/28.0/2021,2000,g  8.0,6.0
# From MPEC 2021-S45
6P/d'Arrest,e,19.5124,138.9355,178.1000,3.498548,0.1506164,0.61280817,1.5397,09/28.0/2021,2000,g  7.5,16.0
# From MPEC 2021-S45
7P/Pons-Winnecke,e,22.3623,93.3709,172.5972,3.414330,0.1562233,0.63852586,19.3543,09/28.0/2021,2000,g 10.0,6.0
# From MPEC 2021-S45
8P/Tuttle,e,54.9108,270.2038,207.4864,5.708208,0.0722694,0.82025636,2.2595,09/28.0/2021,2000,g  8.0,8.0
# From MPEC 2021-F20
9P/Tempel,e,10.4697,68.7167,179.3439,3.146486,0.1765897,0.50922250,332.1092,09/28.0/2021,2000,g 12.5,4.0
# From MPEC 2021-S45
10P/Tempel,e,12.0395,117.8082,195.4954,3.060794,0.1840573,0.53853351,34.5557,09/28.0/2021,2000,g  5.0,10.0
# From MPEC 2017-L52
11P/Tempel-Swift-LINEAR,e,14.4206,238.9057,167.9549,3.283530,0.1656505,0.57709460,50.6485,09/28.0/2021,2000,g  9.0,4.0
# From  27, 604
12P/Pons-Brooks,e,74.1347,255.7741,198.9952,17.14478,0.0138837,0.95439782,347.0087,09/28.0/2021,2000,g  5.0,6.0
# From  27, 604
13P/Olbers,e,44.6212,85.9149,64.4363,16.72757,0.0144064,0.92976443,345.4880,09/28.0/2021,2000,g  5.0,6.0
# From MPEC 2021-F20
14P/Wolf,e,27.9155,202.0506,159.0227,4.258504,0.1121550,0.35705241,156.4553,09/28.0/2021,2000,g  5.5,12.0
# From MPEC 2021-S45
15P/Finlay,e,6.7976,13.7134,347.8248,3.505594,0.1501626,0.71702492,11.4913,09/28.0/2021,2000,g 12.0,4.0
# From MPEC 2021-S45
16P/Brooks,e,3.0116,138.8646,245.1880,3.656019,0.1409910,0.48627204,22.9440,09/28.0/2021,2000,g  7.5,10.0
# From MPEC 2021-S45
17P/Holmes,e,19.0322,326.6200,24.4778,3.635425,0.1421908,0.42763128,31.3044,09/28.0/2021,2000,g 10.0,6.0
# From MPEC 2021-S45
19P/Borrelly,e,29.3040,74.2502,351.9065,3.605751,0.1439496,0.63770924,341.7448,09/28.0/2021,2000,g 12.6,4.0
# From MPEC 2021-F20
21P/Giacobini-Zinner,e,32.0415,195.3472,172.8610,3.495662,0.1508030,0.71104732,167.8670,09/28.0/2021,2000,g 11.4,4.0
# From MPEC 2021-S45
22P/Kopff,e,4.7420,120.8360,163.0092,3.440782,0.1544252,0.54880269,333.5756,09/28.0/2021,2000,g  3.0,10.4
# From MPC 14747
23P/Brorsen-Metcalf,e,19.1376,312.4019,128.8168,16.94903,0.0141249,0.97144603,0.0000,08/04.8295/1989,2000,g 10.0,6.0
# From MPC110085
24P/Schaumasse,e,11.5303,78.5772,58.2764,4.053264,0.1207805,0.70820237,170.9548,09/28.0/2021,2000,g  6.5,14.0
# From MPC 94674
26P/Grigg-Skjellerup,e,22.4334,211.5397,2.1767,3.014405,0.1883222,0.64031884,205.8247,09/28.0/2021,2000,g 12.0,16.0
# From MPC 78188
27P/Crommelin,e,29.2229,250.6118,195.9321,9.184647,0.0354087,0.91833186,131.7180,09/28.0/2021,2000,g 12.0,8.0
# From MPEC 2021-S45
28P/Neujmin,e,14.3120,346.3317,347.4112,6.975631,0.0534969,0.77373727,10.7059,09/28.0/2021,2000,g  8.5,6.0
# From MPEC 2021-S45
29P/Schwassmann-Wachmann,e,9.3667,312.3767,49.4170,6.040001,0.0663970,0.04472159,60.5970,09/28.0/2021,2000,g  4.0,4.0
# From MPC110085
30P/Reinmuth,e,8.2183,118.2730,9.6428,3.698388,0.1385752,0.52401332,214.3353,09/28.0/2021,2000,g  9.5,6.0
# From MPEC 2021-F20
31P/Schwassmann-Wachmann,e,4.5474,114.1100,18.1032,4.238266,0.1129592,0.19212977,92.2286,09/28.0/2021,2000,g 13.1,4.0
# From MPC 92276
32P/Comas Sola,e,9.8718,55.9715,54.4908,4.509181,0.1029337,0.55964397,263.6239,09/28.0/2021,2000,g  6.5,8.0
# From MPEC 2013-O31
33P/Daniel,e,22.2998,66.3189,20.5312,4.085762,0.1193423,0.45164610,223.7862,09/28.0/2021,2000,g 10.0,12.0
# From  15, 452
35P/Herschel-Rigollet,e,65.187,356.678,28.966,28.5590,0.006458,0.9739318,0.000,01/05.2979/2092,2000,g  9.0,4.0
# From MPEC 2021-S45
36P/Whipple,e,9.9518,181.8485,200.8745,4.133891,0.1172642,0.26895740,56.7435,09/28.0/2021,2000,g  8.5,6.0
# From MPEC 2021-F20
37P/Forbes,e,8.9572,314.5602,330.1216,3.460435,0.1531115,0.53373184,190.2714,09/28.0/2021,2000,g 13.8,4.0
# From MPEC 2018-S50
38P/Stephan-Oterma,e,18.3649,77.9598,359.5035,11.23751,0.0261637,0.85901823,27.5230,09/28.0/2021,2000,g  3.5,12.0
# From MPEC 2020-W26
39P/Oterma,e,1.5572,299.1229,96.3582,7.377795,0.0491829,0.22357473,330.1840,09/28.0/2021,2000,g  7.0,6.0
# From MPC100283
40P/Vaisala,e,11.4692,133.7775,47.4139,4.952754,0.0894198,0.62961748,224.8099,09/28.0/2021,2000,g  5.5,12.0
# From MPC105240
41P/Tuttle-Giacobini-Kresak,e,9.2209,140.9873,62.2380,3.087382,0.1816848,0.65996836,296.3331,09/28.0/2021,2000,g 10.0,16.0
# From MPC 94283
42P/Neujmin,e,3.9913,150.1759,147.2259,4.872991,0.0916243,0.58528708,216.3056,09/28.0/2021,2000,g 13.0,6.0
# From MPC102956
43P/Wolf-Harrington,e,9.3382,244.1394,224.1199,4.315506,0.1099402,0.43578902,205.1434,09/28.0/2021,2000,g  8.0,6.0
# From MPEC 2021-S45
44P/Reinmuth,e,5.8981,286.4812,58.1248,3.689871,0.1390552,0.42749735,331.1577,09/28.0/2021,2000,g  8.3,6.0
# From MPC103849
45P/Honda-Mrkos-Pajdusakova,e,4.3231,87.7064,327.9128,3.052359,0.1848207,0.81749499,321.2711,09/28.0/2021,2000,g 13.5,8.0
# From MPEC 2021-O56
46P/Wirtanen,e,11.7445,82.1571,356.3378,3.091986,0.1812791,0.65833730,185.0660,09/28.0/2021,2000,g 14.0,6.0
# From MPEC 2021-S45
47P/Ashbrook-Jackson,e,13.0404,356.9210,357.6492,4.123800,0.1176949,0.31846649,184.6701,09/28.0/2021,2000,g 12.5,4.0
# From MPEC 2021-F20
48P/Johnson,e,12.2058,110.1223,216.6686,3.500879,0.1504660,0.42743707,171.8355,09/28.0/2021,2000,g 12.4,4.0
# From MPEC 2021-F20
49P/Arend-Rigaux,e,19.0456,118.7976,332.9392,3.569844,0.1461269,0.59822856,171.2420,09/28.0/2021,2000,g 13.4,4.0
# From MPEC 2015-S97
50P/Arend,e,19.1005,355.1769,49.3093,4.088646,0.1192161,0.52909582,245.7614,09/28.0/2021,2000,g  9.5,6.0
# From NK 3014
51P-A/Harrington,e,5.4258,83.6765,269.2576,3.708025,0.1380353,0.54347015,308.7961,09/28.0/2021,2000,g 10.0,8.0
# From NK 3013
51P-D/Harrington,e,5.4266,83.6613,269.2962,3.707037,0.1380905,0.54339999,309.0728,09/28.0/2021,2000,g 16.0,8.0
# From MPEC 2021-S45
52P/Harrington-Abell,e,10.2317,336.8379,139.5941,3.864222,0.1297511,0.54008006,359.0667,09/28.0/2021,2000,g 13.5,6.0
# From MPC100283
53P/Van Biesbroeck,e,6.6096,148.8101,134.4914,5.428066,0.0779357,0.55168776,154.0142,09/28.0/2021,2000,g  7.7,4.8
# From MPC 89011
54P/de Vico-Swift-NEAT,e,6.0645,358.8166,1.7912,3.791148,0.1335205,0.42612785,216.9162,09/28.0/2021,2000,g  9.0,4.0
# From MPC 31070
55P/Tempel-Tuttle,e,162.4426,235.4084,172.4967,10.35544,0.0295768,0.90603239,255.9047,09/28.0/2021,2000,g  9.0,4.0
# From MPC101100
56P/Slaughter-Burnham,e,8.1614,345.9963,43.9791,5.068833,0.0863659,0.50772501,163.7590,09/28.0/2021,2000,g  8.5,6.0
# From MPEC 2021-S45
57P/duToit-Neujmin-Delporte,e,2.8509,188.7752,115.2623,3.446896,0.1540146,0.50096838,357.0088,09/28.0/2021,2000,g 12.5,6.0
# From MPEC 2021-O56
58P/Jackson-Neujmin,e,13.1086,159.0748,200.4889,4.085451,0.1193560,0.66279349,58.2922,09/28.0/2021,2000,g 15.5,6.0
# From MPEC 2021-F20
